YAOGAN-43 01G           
1 60464U 24148G   26068.44348481  .00010133  00000+0  35873-3 0  9993
2 60464  35.0006  62.0013 0007382 306.3543  53.6492 15.28332833 87004
STARLINK-32566          
1 61958U 24209V   26068.52133124  .00023211  00000+0  79376-3 0  9992
2 61958  53.1604 143.0063 0001270  77.4445 282.6698 15.30183721 74898
